UNKNOWN                 
1 84188U          26015.57205496  .00127528  00000+0  53774-1 0  9992
2 84188  65.0719 228.1855 3650703  15.0531 353.4801  7.82738612 43879
UNKNOWN                 
1 84232U          26014.87804407  .00011798  00000+0  95991-2 0  9990
2 84232  20.3100 255.0551 6553720  98.8495 335.0531  3.18208925105746
UNKNOWN                 
1 84236U          26008.25446343  .00000478  00000+0  37931-2 0  9993
2 84236   9.4181 323.3148 6893720 117.7230 326.7545  2.62563797114676
UNKNOWN                 
1 84292U          26015.27740220  .00002474  00000+0  13673-2 0  9991
2 84292  23.8244 113.8981 4563211 320.7932  13.7156  6.21774071230158
UNKNOWN                 
1 84406U          26008.21880314  .00000785  00000+0  43231-2 0  9999
2 84406 101.7141 157.7019 0042055 340.3466 199.3092 12.67381377 52646
UNKNOWN                 
1 84407U          26014.97983608  .00000437  00000+0  14584-1 0  9992
2 84407  19.4631 312.7152 7202481  79.6566 347.8356  2.05774891 76555
UNKNOWN                 
1 84575U          26006.85856207 -.00000089  00000+0 -14389-2 0  9999
2 84575  18.0862 150.2643 7102979  37.7019 355.0684  2.19884814 66018
UNKNOWN                 
1 84932U          26015.54912602  .00000464  00000+0  42586-2 0  9999
2 84932   2.0280 223.7063 6578022  93.9749 116.3627  3.00018424132794
UNKNOWN                 
1 85004U          26015.16760741  .00000711  00000+0  23069-3 0  9994
2 85004  98.4254 350.7168 0048156  62.5473   0.5171 14.41175067635714
UNKNOWN                 
1 85010U          26015.10117817  .00000768  00000+0  84561-3 0  9991
2 85010  99.2481 240.9919 0024781 165.6217 348.6092 13.75132138608508
UNKNOWN                 
1 85015U          26012.62655326  .00000520  00000+0  10874-3 0  9994
2 85015  74.0487 339.0941 0017787 242.3060 117.6302 14.62335383647125
UNKNOWN                 
1 85023U          26014.29966643  .00014410  00000+0  20782-2 0  9996
2 85023  99.8491  41.8141 0002095 201.3721 222.3223 14.76421493633639
