CCSDS_OMM_VERS = 2.0
CREATION_DATE  = 
ORIGINATOR     = 

OBJECT_NAME    = UNKNOWN
OBJECT_ID      = 
CENTER_NAME    = EARTH
REF_FRAME      = TEME
TIME_SYSTEM    = UTC
MEAN_ELEMENT_THEORY = SGP/SGP4

EPOCH          = 2026-01-15T13:43:45.548544
MEAN_MOTION    = 7.82738612
ECCENTRICITY   = .3650703
INCLINATION    = 65.0719
RA_OF_ASC_NODE = 228.1855
ARG_OF_PERICENTER = 15.0531
MEAN_ANOMALY   = 353.4801

EPHEMERIS_TYPE = 0
CLASSIFICATION_TYPE = U
NORAD_CAT_ID   = 84188
ELEMENT_SET_NO = 999
REV_AT_EPOCH   = 4387
BSTAR          = .53774E-1
MEAN_MOTION_DOT = .127528E-2
MEAN_MOTION_DDOT = 0

CCSDS_OMM_VERS = 2.0
CREATION_DATE  = 
ORIGINATOR     = 

OBJECT_NAME    = UNKNOWN
OBJECT_ID      = 
CENTER_NAME    = EARTH
REF_FRAME      = TEME
TIME_SYSTEM    = UTC
MEAN_ELEMENT_THEORY = SGP/SGP4

EPOCH          = 2026-01-14T21:04:23.007648
MEAN_MOTION    = 3.18208925
ECCENTRICITY   = .655372
INCLINATION    = 20.3100
RA_OF_ASC_NODE = 255.0551
ARG_OF_PERICENTER = 98.8495
MEAN_ANOMALY   = 335.0531

EPHEMERIS_TYPE = 0
CLASSIFICATION_TYPE = U
NORAD_CAT_ID   = 84232
ELEMENT_SET_NO = 999
REV_AT_EPOCH   = 10574
BSTAR          = .95991E-2
MEAN_MOTION_DOT = .11798E-3
MEAN_MOTION_DDOT = 0

CCSDS_OMM_VERS = 2.0
CREATION_DATE  = 
ORIGINATOR     = 

OBJECT_NAME    = UNKNOWN
OBJECT_ID      = 
CENTER_NAME    = EARTH
REF_FRAME      = TEME
TIME_SYSTEM    = UTC
MEAN_ELEMENT_THEORY = SGP/SGP4

EPOCH          = 2026-01-08T06:06:25.640352
MEAN_MOTION    = 2.62563797
ECCENTRICITY   = .689372
INCLINATION    = 9.4181
RA_OF_ASC_NODE = 323.3148
ARG_OF_PERICENTER = 117.7230
MEAN_ANOMALY   = 326.7545

EPHEMERIS_TYPE = 0
CLASSIFICATION_TYPE = U
NORAD_CAT_ID   = 84236
ELEMENT_SET_NO = 999
REV_AT_EPOCH   = 11467
BSTAR          = .37931E-2
MEAN_MOTION_DOT = .478E-5
MEAN_MOTION_DDOT = 0

CCSDS_OMM_VERS = 2.0
CREATION_DATE  = 
ORIGINATOR     = 

OBJECT_NAME    = UNKNOWN
OBJECT_ID      = 
CENTER_NAME    = EARTH
REF_FRAME      = TEME
TIME_SYSTEM    = UTC
MEAN_ELEMENT_THEORY = SGP/SGP4

EPOCH          = 2026-01-15T06:39:27.550080
MEAN_MOTION    = 6.21774071
ECCENTRICITY   = .4563211
INCLINATION    = 23.8244
RA_OF_ASC_NODE = 113.8981
ARG_OF_PERICENTER = 320.7932
MEAN_ANOMALY   = 13.7156

EPHEMERIS_TYPE = 0
CLASSIFICATION_TYPE = U
NORAD_CAT_ID   = 84292
ELEMENT_SET_NO = 999
REV_AT_EPOCH   = 23015
BSTAR          = .13673E-2
MEAN_MOTION_DOT = .2474E-4
MEAN_MOTION_DDOT = 0

CCSDS_OMM_VERS = 2.0
CREATION_DATE  = 
ORIGINATOR     = 

OBJECT_NAME    = UNKNOWN
OBJECT_ID      = 
CENTER_NAME    = EARTH
REF_FRAME      = TEME
TIME_SYSTEM    = UTC
MEAN_ELEMENT_THEORY = SGP/SGP4

EPOCH          = 2026-01-08T05:15:04.591296
MEAN_MOTION    = 12.67381377
ECCENTRICITY   = .0042055
INCLINATION    = 101.7141
RA_OF_ASC_NODE = 157.7019
ARG_OF_PERICENTER = 340.3466
MEAN_ANOMALY   = 199.3092

EPHEMERIS_TYPE = 0
CLASSIFICATION_TYPE = U
NORAD_CAT_ID   = 84406
ELEMENT_SET_NO = 999
REV_AT_EPOCH   = 5264
BSTAR          = .43231E-2
MEAN_MOTION_DOT = .785E-5
MEAN_MOTION_DDOT = 0

CCSDS_OMM_VERS = 2.0
CREATION_DATE  = 
ORIGINATOR     = 

OBJECT_NAME    = UNKNOWN
OBJECT_ID      = 
CENTER_NAME    = EARTH
REF_FRAME      = TEME
TIME_SYSTEM    = UTC
MEAN_ELEMENT_THEORY = SGP/SGP4

EPOCH          = 2026-01-14T23:30:57.837312
MEAN_MOTION    = 2.05774891
ECCENTRICITY   = .7202481
INCLINATION    = 19.4631
RA_OF_ASC_NODE = 312.7152
ARG_OF_PERICENTER = 79.6566
MEAN_ANOMALY   = 347.8356

EPHEMERIS_TYPE = 0
CLASSIFICATION_TYPE = U
NORAD_CAT_ID   = 84407
ELEMENT_SET_NO = 999
REV_AT_EPOCH   = 7655
BSTAR          = .14584E-1
MEAN_MOTION_DOT = .437E-5
MEAN_MOTION_DDOT = 0

CCSDS_OMM_VERS = 2.0
CREATION_DATE  = 
ORIGINATOR     = 

OBJECT_NAME    = UNKNOWN
OBJECT_ID      = 
CENTER_NAME    = EARTH
REF_FRAME      = TEME
TIME_SYSTEM    = UTC
MEAN_ELEMENT_THEORY = SGP/SGP4

EPOCH          = 2026-01-06T20:36:19.762848
MEAN_MOTION    = 2.19884814
ECCENTRICITY   = .7102979
INCLINATION    = 18.0862
RA_OF_ASC_NODE = 150.2643
ARG_OF_PERICENTER = 37.7019
MEAN_ANOMALY   = 355.0684

EPHEMERIS_TYPE = 0
CLASSIFICATION_TYPE = U
NORAD_CAT_ID   = 84575
ELEMENT_SET_NO = 999
REV_AT_EPOCH   = 6601
BSTAR          = -.14389E-2
MEAN_MOTION_DOT = -.89E-6
MEAN_MOTION_DDOT = 0

CCSDS_OMM_VERS = 2.0
CREATION_DATE  = 
ORIGINATOR     = 

OBJECT_NAME    = UNKNOWN
OBJECT_ID      = 
CENTER_NAME    = EARTH
REF_FRAME      = TEME
TIME_SYSTEM    = UTC
MEAN_ELEMENT_THEORY = SGP/SGP4

EPOCH          = 2026-01-15T13:10:44.488128
MEAN_MOTION    = 3.00018424
ECCENTRICITY   = .6578022
INCLINATION    = 2.0280
RA_OF_ASC_NODE = 223.7063
ARG_OF_PERICENTER = 93.9749
MEAN_ANOMALY   = 116.3627

EPHEMERIS_TYPE = 0
CLASSIFICATION_TYPE = U
NORAD_CAT_ID   = 84932
ELEMENT_SET_NO = 999
REV_AT_EPOCH   = 13279
BSTAR          = .42586E-2
MEAN_MOTION_DOT = .464E-5
MEAN_MOTION_DDOT = 0

CCSDS_OMM_VERS = 2.0
CREATION_DATE  = 
ORIGINATOR     = 

OBJECT_NAME    = UNKNOWN
OBJECT_ID      = 
CENTER_NAME    = EARTH
REF_FRAME      = TEME
TIME_SYSTEM    = UTC
MEAN_ELEMENT_THEORY = SGP/SGP4

EPOCH          = 2026-01-15T04:01:21.280224
MEAN_MOTION    = 14.41175067
ECCENTRICITY   = .0048156
INCLINATION    = 98.4254
RA_OF_ASC_NODE = 350.7168
ARG_OF_PERICENTER = 62.5473
MEAN_ANOMALY   = 0.5171

EPHEMERIS_TYPE = 0
CLASSIFICATION_TYPE = U
NORAD_CAT_ID   = 85004
ELEMENT_SET_NO = 999
REV_AT_EPOCH   = 63571
BSTAR          = .23069E-3
MEAN_MOTION_DOT = .711E-5
MEAN_MOTION_DDOT = 0

CCSDS_OMM_VERS = 2.0
CREATION_DATE  = 
ORIGINATOR     = 

OBJECT_NAME    = UNKNOWN
OBJECT_ID      = 
CENTER_NAME    = EARTH
REF_FRAME      = TEME
TIME_SYSTEM    = UTC
MEAN_ELEMENT_THEORY = SGP/SGP4

EPOCH          = 2026-01-15T02:25:41.793888
MEAN_MOTION    = 13.75132138
ECCENTRICITY   = .0024781
INCLINATION    = 99.2481
RA_OF_ASC_NODE = 240.9919
ARG_OF_PERICENTER = 165.6217
MEAN_ANOMALY   = 348.6092

EPHEMERIS_TYPE = 0
CLASSIFICATION_TYPE = U
NORAD_CAT_ID   = 85010
ELEMENT_SET_NO = 999
REV_AT_EPOCH   = 60850
BSTAR          = .84561E-3
MEAN_MOTION_DOT = .768E-5
MEAN_MOTION_DDOT = 0

CCSDS_OMM_VERS = 2.0
CREATION_DATE  = 
ORIGINATOR     = 

OBJECT_NAME    = UNKNOWN
OBJECT_ID      = 
CENTER_NAME    = EARTH
REF_FRAME      = TEME
TIME_SYSTEM    = UTC
MEAN_ELEMENT_THEORY = SGP/SGP4

EPOCH          = 2026-01-12T15:02:14.201664
MEAN_MOTION    = 14.62335383
ECCENTRICITY   = .0017787
INCLINATION    = 74.0487
RA_OF_ASC_NODE = 339.0941
ARG_OF_PERICENTER = 242.3060
MEAN_ANOMALY   = 117.6302

EPHEMERIS_TYPE = 0
CLASSIFICATION_TYPE = U
NORAD_CAT_ID   = 85015
ELEMENT_SET_NO = 999
REV_AT_EPOCH   = 64712
BSTAR          = .10874E-3
MEAN_MOTION_DOT = .52E-5
MEAN_MOTION_DDOT = 0

CCSDS_OMM_VERS = 2.0
CREATION_DATE  = 
ORIGINATOR     = 

OBJECT_NAME    = UNKNOWN
OBJECT_ID      = 
CENTER_NAME    = EARTH
REF_FRAME      = TEME
TIME_SYSTEM    = UTC
MEAN_ELEMENT_THEORY = SGP/SGP4

EPOCH          = 2026-01-14T07:11:31.179552
MEAN_MOTION    = 14.76421493
ECCENTRICITY   = .0002095
INCLINATION    = 99.8491
RA_OF_ASC_NODE = 41.8141
ARG_OF_PERICENTER = 201.3721
MEAN_ANOMALY   = 222.3223

EPHEMERIS_TYPE = 0
CLASSIFICATION_TYPE = U
NORAD_CAT_ID   = 85023
ELEMENT_SET_NO = 999
REV_AT_EPOCH   = 63363
BSTAR          = .20782E-2
MEAN_MOTION_DOT = .1441E-3
MEAN_MOTION_DDOT = 0

